{"spkid": "50693744", "covariance": {"epoch": "2457616.5", "data": [["3.531254387605778E-13", "-3.113294125274423E-13", "9.223835891227863E-11", "8.292855361799045E-12", "5.750936115551736E-11", "-2.515341311533027E-12"], ["-3.113294125274423E-13", "2.744811490835988E-13", "-8.131585825512093E-11", "-7.311531318809535E-12", "-5.069840851432082E-11", "2.196182226378436E-12"], ["9.223835891227863E-11", "-8.131585825512093E-11", "2.438640798535859E-8", "2.169313752437448E-9", "1.526962974898674E-8", "-9.852002051475234E-10"], ["8.292855361799045E-12", "-7.311531318809535E-12", "2.169313752437448E-9", "2.022469245748487E-10", "1.346284590817121E-9", "-5.952084617672038E-11"], ["5.750936115551736E-11", "-5.069840851432082E-11", "1.526962974898674E-8", "1.346284590817121E-9", "9.582607018182825E-9", "-6.749282836980288E-10"], ["-2.515341311533027E-12", "2.196182226378436E-12", "-9.852002051475234E-10", "-5.952084617672038E-11", "-6.749282836980288E-10", "8.046823988391696E-10"]], "elements": [{"label": "e", "name": "e", "sigma": 5.94243585376046e-07, "units": null, "value": ".273239592244821", "title": "eccentricity"}, {"label": "q", "units": "au", "title": "perihelion distance", "value": ".6264445192090222", "sigma": 5.23909485582766e-07, "name": "q"}, {"value": "2457731.663032040768", "title": "time of perihelion passage", "units": "TDB", "name": "tp", "sigma": 0.00015616148047889, "label": "tp"}, {"units": "deg", "title": "longitude of the ascending node", "value": "25.80782124675529", "sigma": 1.42213545267267e-05, "name": "om", "label": "node"}, {"sigma": 9.78907912838732e-05, "name": "w", "units": "deg", "title": "argument of perihelion", "value": "219.6053435007804", "label": "peri"}, {"label": "i", "name": "i", "sigma": 2.83669243810317e-05, "title": "inclination", "value": "9.747785586780681", "units": "deg"}], "labels": ["e", "q", "tp", "node", "peri", "i"]}, "elements": [{"name": "e", "sigma": "5.9217E-7", "title": "eccentricity", "value": ".2729086505486858", "units": null, "label": "e"}, {"value": ".8588549195329359", "title": "semi-major axis", "units": "au", "sigma": "7.3863E-8", "name": "a", "label": "a"}, {"sigma": "4.5789E-7", "name": "q", "units": "au", "value": ".6244659824261023", "title": "perihelion distance", "label": "q"}, {"label": "i", "name": "i", "sigma": "2.6876E-5", "value": "9.860606707434417", "title": "inclination; angle with respect to x-y ecliptic plane", "units": "deg"}, {"label": "node", "units": "deg", "title": "longitude of the ascending node", "value": "25.55837368683959", "name": "om", "sigma": "3.7113E-6"}, {"title": "argument of perihelion", "value": "219.3162864887911", "units": "deg", "sigma": "8.2312E-5", "name": "w", "label": "peri"}, {"label": "M", "units": "deg", "title": "mean anomaly", "value": "331.2234977273775", "sigma": ".00065376", "name": "ma"}, {"label": "tp", "value": "2461223.738797026809", "title": "time of perihelion passage", "units": "TDB", "name": "tp", "sigma": ".00053093"}, {"label": "period", "name": "per", "sigma": "3.7504E-5", "units": "d", "value": "290.7221611019245", "title": "sidereal orbital period"}, {"label": "n", "units": "deg/d", "value": "1.238295693164538", "title": "mean motion", "name": "n", "sigma": "1.5974E-7"}, {"label": "Q", "name": "ad", "sigma": "9.4021E-8", "value": "1.09324385663977", "title": "aphelion distance", "units": "au"}], "epoch": "2461200.5"}